STARLINK-35585          
1 66170U 25240AA  25328.16668980 -.02056386  00000+0 -59718-1 0  9999
2 66170  53.1585 193.2990 0001238  69.0419  64.2534 15.38701597  5910
STARLINK-35606          
1 66171U 25240AB  25328.00540152  .00070174  00000+0  12578-2 0  9994
2 66171  53.1587 193.9753 0001172  81.3946 278.7196 15.49325121  5807
STARLINK-35627          
1 66172U 25240AC  25327.23233573  .00061729  00000+0  11081-2 0  9999
2 66172  53.1588 197.6857 0000878 113.7702 246.3399 15.49338004  5683
STARLINK-35634          
1 66173U 25240AD  25328.00505949  .00080318  00000+0  14367-2 0  9990
2 66173  53.1585 193.9724 0001432  80.4427 279.6744 15.49322541  5800
HTV-X1                  
1 66174U 25241A   25327.18992837  .00013668  00000+0  25570-3 0  9999
2 66174  51.6318 239.2442 0003903 158.2569 201.8586 15.49010020  1459
GAOFEN-14 02            
1 66175U 25242A   25318.46556247  .00014152  00000+0  52318-3 0  9992
2 66175  97.4386  30.6022 0011017 193.9078 166.1859 15.27766001  2951
CZ-3B R/B               
1 66176U 25242B   25309.65934494  .00029904  00000+0  58815-3 0  9997
2 66176  97.4571  21.8726 0103778   5.1082 355.1197 15.41457457  1622
STARLINK-35352          
1 66177U 25243A   25328.16668980 -.02022055  00000+0 -47443-1 0  9997
2 66177  53.1587  15.6051 0001106  87.3743 312.4361 15.44965533  5590
STARLINK-35363          
1 66178U 25243B   25328.16668980 -.02038001  00000+0 -51253-1 0  9990
2 66178  53.1596  15.6292 0001241  87.5903 299.7703 15.42964189  5656
STARLINK-35346          
1 66179U 25243C   25328.16668980 -.02068771  00000+0 -54040-1 0  9995
2 66179  53.1592  15.6451 0000826  95.0112 284.5145 15.41902273  5594
STARLINK-35335          
1 66180U 25243D   25328.16668980 -.02062908  00000+0 -55679-1 0  9992
2 66180  53.1599  15.6625 0000949  93.7278 277.6803 15.40917492  5592
STARLINK-35342          
1 66181U 25243E   25328.16668980 -.02056042  00000+0 -56636-1 0  9999
2 66181  53.1589  15.6750 0001069 100.0490 265.1397 15.40293971  5592
